[
    {
        "Altitude(m)": 703438.7083969489,
        "Argument of Periapsis(deg)": 0.0,
        "Eccentricity": 0.0,
        "Inclination(deg)": 45.0,
        "Latitude(deg)": -0.06074934947730039,
        "Longitude(deg)": 74.9702008550999,
        "Mean Anomaly(deg)": 0.0,
        "RAAN(deg)": 175.0,
        "Satellite Name": "Constellation 1 770",
        "Satellite Number": 770,
        "Semi-Major Axis(m)": 7083131.272910544,
        "Time(s)": 0
    },
    {
        "Altitude(m)": 703433.0835519008,
        "Argument of Periapsis(deg)": 5.994800624540561e-05,
        "Eccentricity": 0.0,
        "Inclination(deg)": 45.0,
        "Latitude(deg)": -0.017533573171642634,
        "Longitude(deg)": 75.00894970760663,
        "Mean Anomaly(deg)": 0.06070114024991193,
        "RAAN(deg)": 174.99994341083445,
        "Satellite Name": "Constellation 1 770",
        "Satellite Number": 770,
        "Semi-Major Axis(m)": 7083131.272910544,
        "Time(s)": 1
    },
    {
        "Altitude(m)": 703427.4793601144,
        "Argument of Periapsis(deg)": 0.00011989601249081122,
        "Eccentricity": 0.0,
        "Inclination(deg)": 45.0,
        "Latitude(deg)": 0.025682282108202562,
        "Longitude(deg)": 75.04769860857067,
        "Mean Anomaly(deg)": 0.12140228049979841,
        "RAAN(deg)": 174.99988682166884,
        "Satellite Name": "Constellation 1 770",
        "Satellite Number": 770,
        "Semi-Major Axis(m)": 7083131.272910544,
        "Time(s)": 2
    },
    {
        "Altitude(m)": 703421.8958279848,
        "Argument of Periapsis(deg)": 0.00017984401873621686,
        "Eccentricity": 0.0,
        "Inclination(deg)": 45.0,
        "Latitude(deg)": 0.06889819142579562,
        "Longitude(deg)": 75.08644760629011,
        "Mean Anomaly(deg)": 0.18210342074971034,
        "RAAN(deg)": 174.99983023250329,
        "Satellite Name": "Constellation 1 770",
        "Satellite Number": 770,
        "Semi-Major Axis(m)": 7083131.272910544,
        "Time(s)": 3
    },
    {
        "Altitude(m)": 703416.3329618061,
        "Argument of Periapsis(deg)": 0.00023979202498162244,
        "Eccentricity": 0.0,
        "Inclination(deg)": 45.0,
        "Latitude(deg)": 0.11211412984432591,
        "Longitude(deg)": 75.12519674906345,
        "Mean Anomaly(deg)": 0.24280456099959682,
        "RAAN(deg)": 174.99977364333773,
        "Satellite Name": "Constellation 1 770",
        "Satellite Number": 770,
        "Semi-Major Axis(m)": 7083131.272910544,
        "Time(s)": 4
    },
    {
        "Altitude(m)": 703410.7907677847,
        "Argument of Periapsis(deg)": 0.00029974003122702807,
        "Eccentricity": 0.0,
        "Inclination(deg)": 45.0,
        "Latitude(deg)": 0.15533007242652083,
        "Longitude(deg)": 75.16394608518983,
        "Mean Anomaly(deg)": 0.30350570124950876,
        "RAAN(deg)": 174.99971705417215,
        "Satellite Name": "Constellation 1 770",
        "Satellite Number": 770,
        "Semi-Major Axis(m)": 7083131.272910544,
        "Time(s)": 5
    },
    {
        "Altitude(m)": 703405.2692520404,
        "Argument of Periapsis(deg)": 0.00035968803747243373,
        "Eccentricity": 0.0,
        "Inclination(deg)": 45.0,
        "Latitude(deg)": 0.19854599423455543,
        "Longitude(deg)": 75.202695662969,
        "Mean Anomaly(deg)": 0.36420684149939525,
        "RAAN(deg)": 174.9996604650066,
        "Satellite Name": "Constellation 1 770",
        "Satellite Number": 770,
        "Semi-Major Axis(m)": 7083131.272910544,
        "Time(s)": 6
    },
    {
        "Altitude(m)": 703399.7684205916,
        "Argument of Periapsis(deg)": 0.00041963604371783933,
        "Eccentricity": 0.0,
        "Inclination(deg)": 45.0,
        "Latitude(deg)": 0.24176187032984806,
        "Longitude(deg)": 75.24144536260447,
        "Mean Anomaly(deg)": 0.42490798174930716,
        "RAAN(deg)": 174.999603875841,
        "Satellite Name": "Constellation 1 770",
        "Satellite Number": 770,
        "Semi-Major Axis(m)": 7083131.272910544,
        "Time(s)": 7
    },
    {
        "Altitude(m)": 703394.2882793567,
        "Argument of Periapsis(deg)": 0.0004795840499632449,
        "Eccentricity": 0.0,
        "Inclination(deg)": 45.0,
        "Latitude(deg)": 0.284977675773423,
        "Longitude(deg)": 75.28019556859171,
        "Mean Anomaly(deg)": 0.48560912199919365,
        "RAAN(deg)": 174.99954728667544,
        "Satellite Name": "Constellation 1 770",
        "Satellite Number": 770,
        "Semi-Major Axis(m)": 7083131.272910544,
        "Time(s)": 8
    },
    {
        "Altitude(m)": 703388.8288341827,
        "Argument of Periapsis(deg)": 0.0005395320562086505,
        "Eccentricity": 0.0,
        "Inclination(deg)": 45.0,
        "Latitude(deg)": 0.32819338562512146,
        "Longitude(deg)": 75.31894616113603,
        "Mean Anomaly(deg)": 0.5463102622490801,
        "RAAN(deg)": 174.99949069750988,
        "Satellite Name": "Constellation 1 770",
        "Satellite Number": 770,
        "Semi-Major Axis(m)": 7083131.272910544,
        "Time(s)": 9
    },
    {
        "Altitude(m)": 703383.3900907912,
        "Argument of Periapsis(deg)": 0.0005994800624540561,
        "Eccentricity": 0.0,
        "Inclination(deg)": 45.0,
        "Latitude(deg)": 0.37140897494403735,
        "Longitude(deg)": 75.357697188541,
        "Mean Anomaly(deg)": 0.607011402498992,
        "RAAN(deg)": 174.9994341083443,
        "Satellite Name": "Constellation 1 770",
        "Satellite Number": 770,
        "Semi-Major Axis(m)": 7083131.272910544,
        "Time(s)": 10
    },
    {
        "Altitude(m)": 703377.9720548426,
        "Argument of Periapsis(deg)": 0.0006594280686994618,
        "Eccentricity": 0.0,
        "Inclination(deg)": 45.0,
        "Latitude(deg)": 0.4146244187882027,
        "Longitude(deg)": 75.3964486991113,
        "Mean Anomaly(deg)": 0.6677125427488785,
        "RAAN(deg)": 174.99937751917875,
        "Satellite Name": "Constellation 1 770",
        "Satellite Number": 770,
        "Semi-Major Axis(m)": 7083131.272910544,
        "Time(s)": 11
    },
    {
        "Altitude(m)": 703372.5747318775,
        "Argument of Periapsis(deg)": 0.0007193760749448675,
        "Eccentricity": 0.0,
        "Inclination(deg)": 45.0,
        "Latitude(deg)": 0.45783969221457316,
        "Longitude(deg)": 75.43520074115294,
        "Mean Anomaly(deg)": 0.7284136829987905,
        "RAAN(deg)": 174.99932093001317,
        "Satellite Name": "Constellation 1 770",
        "Satellite Number": 770,
        "Semi-Major Axis(m)": 7083131.272910544,
        "Time(s)": 12
    },
    {
        "Altitude(m)": 703367.1981273553,
        "Argument of Periapsis(deg)": 0.000779324081190273,
        "Eccentricity": 0.0,
        "Inclination(deg)": 45.0,
        "Latitude(deg)": 0.5010547702789139,
        "Longitude(deg)": 75.47395336297336,
        "Mean Anomaly(deg)": 0.7891148232486769,
        "RAAN(deg)": 174.9992643408476,
        "Satellite Name": "Constellation 1 770",
        "Satellite Number": 770,
        "Semi-Major Axis(m)": 7083131.272910544,
        "Time(s)": 13
    },
    {
        "Altitude(m)": 703361.8422466465,
        "Argument of Periapsis(deg)": 0.0008392720874356787,
        "Eccentricity": 0.0,
        "Inclination(deg)": 45.0,
        "Latitude(deg)": 0.5442696280357129,
        "Longitude(deg)": 75.51270661288154,
        "Mean Anomaly(deg)": 0.8498159634985889,
        "RAAN(deg)": 174.99920775168204,
        "Satellite Name": "Constellation 1 770",
        "Satellite Number": 770,
        "Semi-Major Axis(m)": 7083131.272910544,
        "Time(s)": 14
    },
    {
        "Altitude(m)": 703356.5070950142,
        "Argument of Periapsis(deg)": 0.0008992200936810842,
        "Eccentricity": 0.0,
        "Inclination(deg)": 45.0,
        "Latitude(deg)": 0.5874842405379775,
        "Longitude(deg)": 75.55146037109104,
        "Mean Anomaly(deg)": 0.9105171037484753,
        "RAAN(deg)": 174.99915116251645,
        "Satellite Name": "Constellation 1 770",
        "Satellite Number": 770,
        "Semi-Major Axis(m)": 7083131.272910544,
        "Time(s)": 15
    },
    {
        "Altitude(m)": 703351.1926776373,
        "Argument of Periapsis(deg)": 0.0009591680999264898,
        "Eccentricity": 0.0,
        "Inclination(deg)": 45.0,
        "Latitude(deg)": 0.6306985828375892,
        "Longitude(deg)": 75.5902150221083,
        "Mean Anomaly(deg)": 0.9712182439983873,
        "RAAN(deg)": 174.9990945733509,
        "Satellite Name": "Constellation 1 770",
        "Satellite Number": 770,
        "Semi-Major Axis(m)": 7083131.272910544,
        "Time(s)": 16
    },
    {
        "Altitude(m)": 703345.8989995961,
        "Argument of Periapsis(deg)": 0.0010191161061718953,
        "Eccentricity": 0.0,
        "Inclination(deg)": 45.0,
        "Latitude(deg)": 0.6739126299845443,
        "Longitude(deg)": 75.62897044615045,
        "Mean Anomaly(deg)": 1.0319193842482737,
        "RAAN(deg)": 174.99903798418532,
        "Satellite Name": "Constellation 1 770",
        "Satellite Number": 770,
        "Semi-Major Axis(m)": 7083131.272910544,
        "Time(s)": 17
    },
    {
        "Altitude(m)": 703340.6260658818,
        "Argument of Periapsis(deg)": 0.001079064112417301,
        "Eccentricity": 0.0,
        "Inclination(deg)": 45.0,
        "Latitude(deg)": 0.7171263570273088,
        "Longitude(deg)": 75.66772669153364,
        "Mean Anomaly(deg)": 1.0926205244981857,
        "RAAN(deg)": 174.99898139501977,
        "Satellite Name": "Constellation 1 770",
        "Satellite Number": 770,
        "Semi-Major Axis(m)": 7083131.272910544,
        "Time(s)": 18
    }
]